DELTA 2 R/B(1)          
1 20453U 90008B   26047.05097093  .00071954  00000+0  92905-3 0  9996
2 20453  35.6054 316.5284 0090516  56.5081 304.4266 15.52946842922761
COSMOS 2058             
1 20465U 90010A   26047.52597868  .00004596  00000+0  27230-3 0  9996
2 20465  82.4654  68.2776 0011224  55.0859 305.1424 15.11122327939045
SL-14 R/B               
1 20466U 90010B   26047.71089366  .00000416  00000+0  47433-4 0  9992
2 20466  82.5015 287.0972 0020188  13.4703 346.7046 14.83550501925371
SL-14 R/B               
1 20511U 90018B   26047.64097205  .00000446  00000+0  52947-4 0  9993
2 20511  82.5179 242.7673 0016843 156.6723 203.5259 14.82121399919461
HST                     
1 20580U 90037B   26047.73401218  .00007734  00000+0  25785-3 0  9999
2 20580  28.4676 182.9159 0001171 231.8150 128.2340 15.29136516770109
SL-16 R/B               
1 20625U 90046B   26047.84313780  .00000319  00000+0  18930-3 0  9993
2 20625  71.0015 341.6936 0015233 328.7153  31.3062 14.15011723845441
COSMOS 2084             
1 20663U 90055A   26047.40184952  .00003040  00000+0  22338-3 0  9995
2 20663  62.7898  48.1746 0020338 185.3105 174.7783 15.05507977933118
SL-6 R/B(2)             
1 20666U 90055D   26047.82121812  .00002447  00000+0  19239-3 0  9996
2 20666  62.7846 324.8117 0021610 341.4649  18.5660 15.03488637935055
SL-8 R/B                
1 20775U 90078B   26047.67207444  .00015717  00000+0  46134-3 0  9999
2 20775  82.9008 270.2029 0366261  84.4467 279.8399 14.88348760806177
SL-8 R/B                
1 21088U 91006B   26047.87125176  .00000019  00000+0  37599-5 0  9998
2 21088  82.9445 185.5222 0023758  93.8359  71.4176 13.77492330761201
OKEAN-3                 
1 21397U 91039A   26047.86475057  .00005146  00000+0  36332-3 0  9990
2 21397  82.5196 357.0111 0015896  45.7063 314.5464 15.04641047861900
COSMOS 2151             
1 21422U 91042A   26047.80444558  .00001598  00000+0  12609-3 0  9997
2 21422  82.4951 103.8250 0013804 126.4400 233.8099 15.00023307860069
