CCSDS_OMM_VERS = 2.0
CREATION_DATE  = 
ORIGINATOR     = 

OBJECT_NAME    = DELTA 2 R/B(1)
OBJECT_ID      = 1990-008B
CENTER_NAME    = EARTH
REF_FRAME      = TEME
TIME_SYSTEM    = UTC
MEAN_ELEMENT_THEORY = SGP/SGP4

EPOCH          = 2026-02-16T01:13:23.888352
MEAN_MOTION    = 15.52946842
ECCENTRICITY   = .00905163
INCLINATION    = 35.6054
RA_OF_ASC_NODE = 316.5284
ARG_OF_PERICENTER = 56.5081
MEAN_ANOMALY   = 304.4266

EPHEMERIS_TYPE = 0
CLASSIFICATION_TYPE = U
NORAD_CAT_ID   = 20453
ELEMENT_SET_NO = 999
REV_AT_EPOCH   = 92276
BSTAR          = .92904788E-3
MEAN_MOTION_DOT = .71954E-3
MEAN_MOTION_DDOT = 0

CCSDS_OMM_VERS = 2.0
CREATION_DATE  = 
ORIGINATOR     = 

OBJECT_NAME    = COSMOS 2058
OBJECT_ID      = 1990-010A
CENTER_NAME    = EARTH
REF_FRAME      = TEME
TIME_SYSTEM    = UTC
MEAN_ELEMENT_THEORY = SGP/SGP4

EPOCH          = 2026-02-16T12:37:24.557952
MEAN_MOTION    = 15.11122327
ECCENTRICITY   = .0011224
INCLINATION    = 82.4654
RA_OF_ASC_NODE = 68.2776
ARG_OF_PERICENTER = 55.0859
MEAN_ANOMALY   = 305.1424

EPHEMERIS_TYPE = 0
CLASSIFICATION_TYPE = U
NORAD_CAT_ID   = 20465
ELEMENT_SET_NO = 999
REV_AT_EPOCH   = 93904
BSTAR          = .2723E-3
MEAN_MOTION_DOT = .4596E-4
MEAN_MOTION_DDOT = 0

CCSDS_OMM_VERS = 2.0
CREATION_DATE  = 
ORIGINATOR     = 

OBJECT_NAME    = SL-14 R/B
OBJECT_ID      = 1990-010B
CENTER_NAME    = EARTH
REF_FRAME      = TEME
TIME_SYSTEM    = UTC
MEAN_ELEMENT_THEORY = SGP/SGP4

EPOCH          = 2026-02-16T17:03:41.212224
MEAN_MOTION    = 14.83550501
ECCENTRICITY   = .0020188
INCLINATION    = 82.5015
RA_OF_ASC_NODE = 287.0972
ARG_OF_PERICENTER = 13.4703
MEAN_ANOMALY   = 346.7046

EPHEMERIS_TYPE = 0
CLASSIFICATION_TYPE = U
NORAD_CAT_ID   = 20466
ELEMENT_SET_NO = 999
REV_AT_EPOCH   = 92537
BSTAR          = .47433E-4
MEAN_MOTION_DOT = .416E-5
MEAN_MOTION_DDOT = 0

CCSDS_OMM_VERS = 2.0
CREATION_DATE  = 
ORIGINATOR     = 

OBJECT_NAME    = SL-14 R/B
OBJECT_ID      = 1990-018B
CENTER_NAME    = EARTH
REF_FRAME      = TEME
TIME_SYSTEM    = UTC
MEAN_ELEMENT_THEORY = SGP/SGP4

EPOCH          = 2026-02-16T15:22:59.985120
MEAN_MOTION    = 14.82121399
ECCENTRICITY   = .0016843
INCLINATION    = 82.5179
RA_OF_ASC_NODE = 242.7673
ARG_OF_PERICENTER = 156.6723
MEAN_ANOMALY   = 203.5259

EPHEMERIS_TYPE = 0
CLASSIFICATION_TYPE = U
NORAD_CAT_ID   = 20511
ELEMENT_SET_NO = 999
REV_AT_EPOCH   = 91946
BSTAR          = .52947E-4
MEAN_MOTION_DOT = .446E-5
MEAN_MOTION_DDOT = 0

CCSDS_OMM_VERS = 2.0
CREATION_DATE  = 
ORIGINATOR     = 

OBJECT_NAME    = HST
OBJECT_ID      = 1990-037B
CENTER_NAME    = EARTH
REF_FRAME      = TEME
TIME_SYSTEM    = UTC
MEAN_ELEMENT_THEORY = SGP/SGP4

EPOCH          = 2026-02-16T17:36:58.652352
MEAN_MOTION    = 15.29136516
ECCENTRICITY   = .0001171
INCLINATION    = 28.4676
RA_OF_ASC_NODE = 182.9159
ARG_OF_PERICENTER = 231.8150
MEAN_ANOMALY   = 128.2340

EPHEMERIS_TYPE = 0
CLASSIFICATION_TYPE = U
NORAD_CAT_ID   = 20580
ELEMENT_SET_NO = 999
REV_AT_EPOCH   = 77010
BSTAR          = .25785E-3
MEAN_MOTION_DOT = .7734E-4
MEAN_MOTION_DDOT = 0

CCSDS_OMM_VERS = 2.0
CREATION_DATE  = 
ORIGINATOR     = 

OBJECT_NAME    = SL-16 R/B
OBJECT_ID      = 1990-046B
CENTER_NAME    = EARTH
REF_FRAME      = TEME
TIME_SYSTEM    = UTC
MEAN_ELEMENT_THEORY = SGP/SGP4

EPOCH          = 2026-02-16T20:14:07.105920
MEAN_MOTION    = 14.15011723
ECCENTRICITY   = .0015233
INCLINATION    = 71.0015
RA_OF_ASC_NODE = 341.6936
ARG_OF_PERICENTER = 328.7153
MEAN_ANOMALY   = 31.3062

EPHEMERIS_TYPE = 0
CLASSIFICATION_TYPE = U
NORAD_CAT_ID   = 20625
ELEMENT_SET_NO = 999
REV_AT_EPOCH   = 84544
BSTAR          = .1893E-3
MEAN_MOTION_DOT = .319E-5
MEAN_MOTION_DDOT = 0

CCSDS_OMM_VERS = 2.0
CREATION_DATE  = 
ORIGINATOR     = 

OBJECT_NAME    = COSMOS 2084
OBJECT_ID      = 1990-055A
CENTER_NAME    = EARTH
REF_FRAME      = TEME
TIME_SYSTEM    = UTC
MEAN_ELEMENT_THEORY = SGP/SGP4

EPOCH          = 2026-02-16T09:38:39.798528
MEAN_MOTION    = 15.05507977
ECCENTRICITY   = .00203387
INCLINATION    = 62.7898
RA_OF_ASC_NODE = 48.1746
ARG_OF_PERICENTER = 185.3105
MEAN_ANOMALY   = 174.7783

EPHEMERIS_TYPE = 0
CLASSIFICATION_TYPE = U
NORAD_CAT_ID   = 20663
ELEMENT_SET_NO = 999
REV_AT_EPOCH   = 93311
BSTAR          = .22338443E-3
MEAN_MOTION_DOT = .304E-4
MEAN_MOTION_DDOT = 0

CCSDS_OMM_VERS = 2.0
CREATION_DATE  = 
ORIGINATOR     = 

OBJECT_NAME    = SL-6 R/B(2)
OBJECT_ID      = 1990-055D
CENTER_NAME    = EARTH
REF_FRAME      = TEME
TIME_SYSTEM    = UTC
MEAN_ELEMENT_THEORY = SGP/SGP4

EPOCH          = 2026-02-16T19:42:33.245568
MEAN_MOTION    = 15.03488637
ECCENTRICITY   = .002161
INCLINATION    = 62.7846
RA_OF_ASC_NODE = 324.8117
ARG_OF_PERICENTER = 341.4649
MEAN_ANOMALY   = 18.5660

EPHEMERIS_TYPE = 0
CLASSIFICATION_TYPE = U
NORAD_CAT_ID   = 20666
ELEMENT_SET_NO = 999
REV_AT_EPOCH   = 93505
BSTAR          = .19239E-3
MEAN_MOTION_DOT = .2447E-4
MEAN_MOTION_DDOT = 0

CCSDS_OMM_VERS = 2.0
CREATION_DATE  = 
ORIGINATOR     = 

OBJECT_NAME    = SL-8 R/B
OBJECT_ID      = 1990-078B
CENTER_NAME    = EARTH
REF_FRAME      = TEME
TIME_SYSTEM    = UTC
MEAN_ELEMENT_THEORY = SGP/SGP4

EPOCH          = 2026-02-16T16:07:47.231616
MEAN_MOTION    = 14.88348760
ECCENTRICITY   = .0366261
INCLINATION    = 82.9008
RA_OF_ASC_NODE = 270.2029
ARG_OF_PERICENTER = 84.4467
MEAN_ANOMALY   = 279.8399

EPHEMERIS_TYPE = 0
CLASSIFICATION_TYPE = U
NORAD_CAT_ID   = 20775
ELEMENT_SET_NO = 999
REV_AT_EPOCH   = 80617
BSTAR          = .46134E-3
MEAN_MOTION_DOT = .15717E-3
MEAN_MOTION_DDOT = 0

CCSDS_OMM_VERS = 2.0
CREATION_DATE  = 
ORIGINATOR     = 

OBJECT_NAME    = SL-8 R/B
OBJECT_ID      = 1991-006B
CENTER_NAME    = EARTH
REF_FRAME      = TEME
TIME_SYSTEM    = UTC
MEAN_ELEMENT_THEORY = SGP/SGP4

EPOCH          = 2026-02-16T20:54:36.152064
MEAN_MOTION    = 13.77492330
ECCENTRICITY   = .0023758
INCLINATION    = 82.9445
RA_OF_ASC_NODE = 185.5222
ARG_OF_PERICENTER = 93.8359
MEAN_ANOMALY   = 71.4176

EPHEMERIS_TYPE = 0
CLASSIFICATION_TYPE = U
NORAD_CAT_ID   = 21088
ELEMENT_SET_NO = 999
REV_AT_EPOCH   = 76120
BSTAR          = .37599E-5
MEAN_MOTION_DOT = .19E-6
MEAN_MOTION_DDOT = 0

CCSDS_OMM_VERS = 2.0
CREATION_DATE  = 
ORIGINATOR     = 

OBJECT_NAME    = OKEAN-3
OBJECT_ID      = 1991-039A
CENTER_NAME    = EARTH
REF_FRAME      = TEME
TIME_SYSTEM    = UTC
MEAN_ELEMENT_THEORY = SGP/SGP4

EPOCH          = 2026-02-16T20:45:14.449248
MEAN_MOTION    = 15.04641047
ECCENTRICITY   = .0015896
INCLINATION    = 82.5196
RA_OF_ASC_NODE = 357.0111
ARG_OF_PERICENTER = 45.7063
MEAN_ANOMALY   = 314.5464

EPHEMERIS_TYPE = 0
CLASSIFICATION_TYPE = U
NORAD_CAT_ID   = 21397
ELEMENT_SET_NO = 999
REV_AT_EPOCH   = 86190
BSTAR          = .36332E-3
MEAN_MOTION_DOT = .5146E-4
MEAN_MOTION_DDOT = 0

CCSDS_OMM_VERS = 2.0
CREATION_DATE  = 
ORIGINATOR     = 

OBJECT_NAME    = COSMOS 2151
OBJECT_ID      = 1991-042A
CENTER_NAME    = EARTH
REF_FRAME      = TEME
TIME_SYSTEM    = UTC
MEAN_ELEMENT_THEORY = SGP/SGP4

EPOCH          = 2026-02-16T19:18:24.098112
MEAN_MOTION    = 15.00023307
ECCENTRICITY   = .0013804
INCLINATION    = 82.4951
RA_OF_ASC_NODE = 103.8250
ARG_OF_PERICENTER = 126.4400
MEAN_ANOMALY   = 233.8099

EPHEMERIS_TYPE = 0
CLASSIFICATION_TYPE = U
NORAD_CAT_ID   = 21422
ELEMENT_SET_NO = 999
REV_AT_EPOCH   = 86006
BSTAR          = .12609E-3
MEAN_MOTION_DOT = .1598E-4
MEAN_MOTION_DDOT = 0

